NORAD_CAT_ID,OBJECT_NAME,OBJECT_TYPE,EPOCH,MEAN_MOTION,ECCENTRICITY,INCLINATION,RA_OF_ASC_NODE,ARG_OF_PERICENTER,MEAN_ANOMALY,BSTAR,MEAN_MOTION_DOT,MEAN_MOTION_DDOT,TLE_LINE0,TLE_LINE1,TLE_LINE2,SEMIMAJOR_AXIS,PERIOD,APOGEE,PERIGEE,DECAYED
54185.0,STARLINK-5235,PAYLOAD,2022-11-24 14:00:01,15.73427806,0.0003801,53.2172,7.6141,358.9147,196.0443,-0.00099433,-0.00139309,0.0,0 STARLINK-5235,1 54185U 22141AE  22328.58334491 -.00139309  00000-0 -99433-3 0  9995,2 54185  53.2172   7.6141 0003801 358.9147 196.0443 15.73427806  4591,6727.246,91.52,351.668,346.55400000000014,0.0
54185.0,STARLINK-5235,PAYLOAD,2022-11-24 22:00:00,15.73283158,0.000362,53.2174,5.9619,2.7142,281.4114,-0.0011419,-0.00158538,0.0,0 STARLINK-5235,1 54185U 22141AE  22328.91667824 -.00158538  00000-0 -11419-2 0  9993,2 54185  53.2174   5.9619 0003620   2.7142 281.4114 15.73283158  4642,6727.658,91.528,351.959,347.088,0.0
54185.0,STARLINK-5235,PAYLOAD,2022-11-25 14:00:01,15.73112748,0.0004013,53.2173,2.6648,7.5883,94.3529,0.00065246,0.00091638,0.0,0 STARLINK-5235,1 54185U 22141AE  22329.58334491  .00091638  00000-0  65246-3 0  9991,2 54185  53.2173   2.6648 0004013   7.5883  94.3529 15.73112748  4758,6728.144,91.538,352.709,347.309,0.0
54185.0,STARLINK-5235,PAYLOAD,2022-11-25 22:00:00,15.73153126,0.0003811,53.2173,1.0133,8.5243,182.2915,0.00066859,0.00094105,0.0,0 STARLINK-5235,1 54185U 22141AE  22329.91667824  .00094105  00000-0  66859-3 0  9990,2 54185  53.2173   1.0133 0003811   8.5243 182.2915 15.73153126  1305,6728.029,91.536,352.458,347.33,0.0
54185.0,STARLINK-5235,PAYLOAD,2022-11-26 12:00:00,15.73237902,0.0004047,53.217,358.1289,7.7133,248.7461,-0.00023445,-0.00033467,0.0,0 STARLINK-5235,1 54185U 22141AE  22330.50001157 -.00033467  00000-0 -23445-3 0  9998,2 54185  53.2170 358.1289 0004047   7.7133 248.7461 15.73237902  4897,6727.7869999999975,91.531,352.375,346.92900000000014,0.0
54185.0,STARLINK-5235,PAYLOAD,2022-11-26 14:00:01,15.73234835,0.0004061,53.2166,357.7163,6.0923,2.6107,-0.00032443,-0.00045999,0.0,0 STARLINK-5235,1 54185U 22141AE  22330.58334491 -.00045999  00000-0 -32443-3 0  9997,2 54185  53.2166 357.7163 0004061   6.0923   2.6107 15.73234835  1302,6727.795999999999,91.531,352.39300000000014,346.92900000000014,0.0
54185.0,STARLINK-5235,PAYLOAD,2022-11-26 22:00:00,15.73168829,0.0003759,53.2168,356.0647,2.5872,95.0843,-0.00022968,-0.00032703,0.0,0 STARLINK-5235,1 54185U 22141AE  22330.91667824 -.00032703  00000-0 -22968-3 0  9993,2 54185  53.2168 356.0647 0003759   2.5872  95.0843 15.73168829  1302,6727.984,91.535,352.37800000000016,347.32,0.0
54185.0,STARLINK-5235,PAYLOAD,2022-11-27 06:00:00,15.73155548,0.0003925,53.2171,354.4161,3.1422,183.4064,0.00018593,0.0002551,0.0,0 STARLINK-5235,1 54185U 22141AE  22331.25001157  .00025510  00000-0  18593-3 0  9997,2 54185  53.2171 354.4161 0003925   3.1422 183.4064 15.73155548  5015,6728.022,91.536,352.528,347.246,0.0
54185.0,STARLINK-5235,PAYLOAD,2022-11-27 14:00:01,15.73180109,0.0004137,53.217,352.7675,1.8953,273.5321,0.00030488,0.00042361,0.0,0 STARLINK-5235,1 54185U 22141AE  22331.58334491  .00042361  00000-0  30488-3 0  9993,2 54185  53.2170 352.7675 0004137   1.8953 273.5321 15.73180109  1301,6727.9519999999975,91.534,352.6,347.034,0.0
54185.0,STARLINK-5235,PAYLOAD,2022-11-27 22:00:00,15.73158117,0.0003888,53.217,351.1161,1.8283,2.5353,0.00026289,0.00036378,0.0,0 STARLINK-5235,1 54185U 22141AE  22331.91667824  .00036378  00000-0  26289-3 0  9994,2 54185  53.2170 351.1161 0003888   1.8283   2.5353 15.73158117  1301,6728.015,91.536,352.495,347.264,0.0
54185.0,STARLINK-5235,PAYLOAD,2022-11-28 14:00:01,15.73186593,0.0004206,53.2164,347.8192,0.6783,181.5196,0.00014177,0.00019315,0.0,0 STARLINK-5235,1 54185U 22141AE  22332.58334491  .00019315  00000-0  14177-3 0  9994,2 54185  53.2164 347.8192 0004206   0.6783 181.5196 15.73186593  5224,6727.933000000001,91.534,352.62800000000016,346.969,0.0
54185.0,STARLINK-5235,PAYLOAD,2022-11-28 22:00:01,15.7317503,0.0003951,53.2166,346.1676,0.2056,270.9835,0.00063948,0.00090024,0.0,0 STARLINK-5235,1 54185U 22141AE  22332.91668981  .00090024  00000-0  63948-3 0  9991,2 54185  53.2166 346.1676 0003951   0.2056 270.9835 15.73175030  1302,6727.965999999999,91.535,352.49,347.173,0.0
54185.0,STARLINK-5235,PAYLOAD,2022-11-29 14:00:01,15.73201382,0.0004218,53.2168,342.8705,357.4297,91.6547,-0.0001858,-0.00026634,0.0,0 STARLINK-5235,1 54185U 22141AE  22333.58335648 -.00026634  00000-0 -18580-3 0  9996,2 54185  53.2168 342.8705 0004218 357.4297  91.6547 15.73201382  5381,6727.891,91.533,352.594,346.918,0.0
54185.0,STARLINK-5235,PAYLOAD,2022-11-29 22:00:00,15.73159923,0.0003954,53.2167,341.2193,357.9142,180.0279,0.00069167,0.00097446,0.0,0 STARLINK-5235,1 54185U 22141AE  22333.91667824  .00097446  00000-0  69167-3 0  9991,2 54185  53.2167 341.2193 0003954 357.9142 180.0279 15.73159923  1300,6728.009,91.536,352.535,347.214,0.0
54185.0,STARLINK-5235,PAYLOAD,2022-11-30 06:00:00,15.73261204,0.0004134,53.2166,339.5717,1.352,265.506,-0.00063791,-0.00089489,0.0,0 STARLINK-5235,1 54185U 22141AE  22334.25001157 -.00089489  00000-0 -63791-3 0  9997,2 54185  53.2166 339.5717 0004134   1.3520 265.5060 15.73261204  5488,6727.721,91.53,352.367,346.80400000000014,0.0
54185.0,STARLINK-5235,PAYLOAD,2022-11-30 14:00:01,15.73241211,0.0004327,53.216,337.9172,2.1454,353.7347,-0.0006013,-0.00084373,0.0,0 STARLINK-5235,1 54185U 22141AE  22334.58335648 -.00084373  00000-0 -60130-3 0  9999,2 54185  53.2160 337.9172 0004327   2.1454 353.7347 15.73241211  1309,6727.778,91.531,352.55400000000014,346.732,0.0
54185.0,STARLINK-5235,PAYLOAD,2022-11-30 20:00:01,15.73121531,0.000403,53.2167,336.6747,3.154,329.4027,0.0001587,0.0002164,0.0,0 STARLINK-5235,1 54185U 22141AE  22334.83334491  .00021640  00000-0  15870-3 0  9999,2 54185  53.2167 336.6747 0004030   3.1540 329.4027 15.73121531  5589,6728.119000000002,91.538,352.695,347.272,0.0
54185.0,STARLINK-5235,PAYLOAD,2022-11-30 22:00:00,15.73034712,0.0004001,53.2166,336.2605,1.9054,82.8917,0.001535,0.00219012,0.0,0 STARLINK-5235,1 54185U 22141AE  22334.91667824  .00219012  00000-0  15350-2 0  9991,2 54185  53.2166 336.2605 0004001   1.9054  82.8917 15.73034712  1309,6728.366,91.543,352.923,347.539,0.0
54185.0,STARLINK-5235,PAYLOAD,2022-12-01 06:00:00,15.73195338,0.0004178999999999,53.2166,334.6216,1.3437,172.332,-0.00032923,-0.00046591,0.0,0 STARLINK-5235,1 54185U 22141AE  22335.25001157 -.00046591  00000-0 -32923-3 0  9998,2 54185  53.2166 334.6216 0004179   1.3437 172.3320 15.73195338  5640,6727.908,91.533,352.585,346.962,0.0
54185.0,STARLINK-5235,PAYLOAD,2022-12-01 14:00:01,15.731999599999998,0.0004257,53.2161,332.9737,1.1456,261.4474,0.0002576,0.00035698,0.0,0 STARLINK-5235,1 54185U 22141AE  22335.58334491  .00035698  00000-0  25760-3 0  9999,2 54185  53.2161 332.9737 0004257   1.1456 261.4474 15.73199960  1304,6727.895,91.533,352.624,346.896,0.0
54185.0,STARLINK-5235,PAYLOAD,2022-12-01 20:00:01,15.73211441,0.0004095,53.2163,331.7351,2.4141,236.9579,0.00045815,0.00064225,0.0,0 STARLINK-5235,1 54185U 22141AE  22335.83335648  .00064225  00000-0  45815-3 0  9993,2 54185  53.2163 331.7351 0004095   2.4141 236.9579 15.73211441  5733,6727.863,91.533,352.483,346.972,0.0
54185.0,STARLINK-5235,PAYLOAD,2022-12-01 22:00:00,15.73239517,0.0004088,53.2161,331.3225,3.5793,347.9616,9.2179e-05,0.00012358,0.0,0 STARLINK-5235,1 54185U 22141AE  22335.91667824  .00012358  00000-0  92179-4 0  9992,2 54185  53.2161 331.3225 0004088   3.5793 347.9616 15.73239517  1302,6727.783,91.531,352.398,346.897,0.0
54185.0,STARLINK-5235,PAYLOAD,2022-12-02 06:00:00,15.73238821,0.0004265,53.216,329.6745,5.4341,75.0912,-0.00061889,-0.00086788,0.0,0 STARLINK-5235,1 54185U 22141AE  22336.25001157 -.00086788  00000-0 -61889-3 0  9994,2 54185  53.2160 329.6745 0004265   5.4341  75.0912 15.73238821  5809,6727.784000000002,91.531,352.519,346.78,0.0
54185.0,STARLINK-5235,PAYLOAD,2022-12-02 14:00:01,15.73096158,0.0004034,53.2151,328.025,349.934,179.5348,-0.00010517,-0.00015298,0.0,0 STARLINK-5235,1 54185U 22141AE  22336.58334491 -.00015298  00000-0 -10517-3 0  9990,2 54185  53.2151 328.0250 0004034 349.9340 179.5348 15.73096158  5855,6728.191,91.539,352.77,347.342,0.0
54185.0,STARLINK-5235,PAYLOAD,2022-12-02 22:00:00,15.73064902,0.00038,53.2153,326.3741,351.1125,267.1463,0.00066743,0.0009358,0.0,0 STARLINK-5235,1 54185U 22141AE  22336.91667824  .00093580  00000-0  66743-3 0  9996,2 54185  53.2153 326.3741 0003800 351.1125 267.1463 15.73064902  1309,6728.28,91.541,352.702,347.589,0.0
54185.0,STARLINK-5235,PAYLOAD,2022-12-03 06:00:00,15.73124353,0.0004,53.2154,324.7267,353.1891,353.8796,0.00036447,0.0005069,0.0,0 STARLINK-5235,1 54185U 22141AE  22337.25001157  .00050690  00000-0  36447-3 0  9998,2 54185  53.2154 324.7267 0004000 353.1891 353.8796 15.73124353  5965,6728.111,91.538,352.667,347.285,0.0
54185.0,STARLINK-5235,PAYLOAD,2022-12-03 14:00:01,15.73192062,0.0004042,53.2153,323.0769,352.4856,83.4327,0.00045703,0.0006401,0.0,0 STARLINK-5235,1 54185U 22141AE  22337.58334491  .00064010  00000-0  45703-3 0  9990,2 54185  53.2153 323.0769 0004042 352.4856  83.4327 15.73192062  1304,6727.918000000002,91.534,352.50199999999984,347.06300000000016,0.0
54185.0,STARLINK-5235,PAYLOAD,2022-12-03 22:00:00,15.73237713,0.0003784,53.2154,321.4257,354.1531,170.7118,0.00056647,0.0007979,0.0,0 STARLINK-5235,1 54185U 22141AE  22337.91667824  .00079790  00000-0  56647-3 0  9996,2 54185  53.2154 321.4257 0003784 354.1531 170.7118 15.73237713  6069,6727.788000000001,91.531,352.1980000000001,347.107,0.0
54185.0,STARLINK-5235,PAYLOAD,2022-12-04 04:00:00,15.73311353,0.0003991,53.2151,320.19,357.1615,144.4462,-0.00061661,-0.00086732,0.0,0 STARLINK-5235,1 54185U 22141AE  22338.16667824 -.00086732  00000-0 -61661-3 0  9992,2 54185  53.2151 320.1900 0003991 357.1615 144.4462 15.73311353  6101,6727.578,91.527,352.12800000000016,346.7580000000001,0.0
